GLOBALSTAR M035         
1 25851U 99037A   24204.60562014 -.00000007  00000+0  21323-2 0  9995
2 25851  51.9961  69.9585 0013240 164.8404 217.4527 11.04531163 59842
GLOBALSTAR M032         
1 25852U 99037B   24204.54891288 -.00000073  00000+0 -19797-3 0  9994
2 25852  51.9950 278.0300 0009753 330.2159  29.8084 11.19059549 97887
GLOBALSTAR M051         
1 25853U 99037C   24204.21858467 -.00000110  00000+0 -94787-3 0  9995
2 25853  51.9792 116.8953 0001808 359.7648   0.3162 11.42199132 94682
GLOBALSTAR M030         
1 25854U 99037D   24204.55896229 -.00000018  00000+0  12078-2 0  9999
2 25854  51.9894 303.1440 0004101 171.0987 188.9903 11.55099121111955
GLOBALSTAR M048         
1 25872U 99041A   24204.56989795 -.00000063  00000+0  19078-3 0  9994
2 25872  51.9387  38.3379 0013257 337.7622  28.2496 11.33847432 87596
GLOBALSTAR M026         
1 25873U 99041B   24204.45103906 -.00000013  00000+0  18900-2 0  9992
2 25873  51.9968 191.7303 0001290  43.0367 128.7065 11.06834956111975
GLOBALSTAR M043         
1 25874U 99041C   24204.82219956  .00000001  00000+0  20526-2 0  9990
2 25874  51.9389 132.2555 0012482 106.4178 285.9162 11.25682000 85810
GLOBALSTAR M028         
1 25875U 99041D   24204.22355251 -.00000047  00000+0  34820-3 0  9998
2 25875  51.9624  96.9417 0064097  74.6746 286.1187 12.50559827148899
